{"type": "FeatureCollection", "features": [ {"type": "Feature", "properties": {"norad_id": 65304, "name": "DRAGON CRS-33", "group": "stations", "lat": -49.7044896590843, "lon": -31.51811559490102, "alt_km": 420.2407434284669, "timestamp": "2025-12-25T11:37:43.168610+00:00", "meta": {"OBJECT_NAME": "DRAGON CRS-33", "OBJECT_ID": "2025-186A", "EPOCH": "2025-12-24T17:30:08.449344", "MEAN_MOTION": 15.49788781, "ECCENTRICITY": 0.00031932, "INCLINATION": 51.6317, "RA_OF_ASC_NODE": 83.1022, "ARG_OF_PERICENTER": 296.2044, "MEAN_ANOMALY": 63.8616, "EPHEMERIS_TYPE": 0, "CLASSIFICATION_TYPE": "U", "NORAD_CAT_ID": 65304, "ELEMENT_SET_NO": 999, "REV_AT_EPOCH": 11, "BSTAR": 0.00024880559, "MEAN_MOTION_DOT": 0.00013665, "MEAN_MOTION_DDOT": 0}, "tle": {"line1": "1 65304U 25186A   25358.72926446  .00013665  00000+0  24881-3 0  9999", "line2": "2 65304  51.6317  83.1022 0003193 296.2044  63.8616 15.49788781   112"}}, "geometry": {"type": "Point", "coordinates": [-31.51811559490102, -49.7044896590843]}}, {"type": "Feature", "properties": {"norad_id": 65586, "name": "PROGRESS-MS 32", "group": "stations", "lat": -49.7044898393409, "lon": -31.51811463737787, "alt_km": 420.2407434171864, "timestamp": "2025-12-25T11:37:43.168620+00:00", "meta": {"OBJECT_NAME": "PROGRESS-MS 32", "OBJECT_ID": "2025-204A", "EPOCH": "2025-12-24T17:30:08.449344", "MEAN_MOTION": 15.49788781, "ECCENTRICITY": 0.00031932, "INCLINATION": 51.6317, "RA_OF_ASC_NODE": 83.1022, "ARG_OF_PERICENTER": 296.2044, "MEAN_ANOMALY": 63.8616, "EPHEMERIS_TYPE": 0, "CLASSIFICATION_TYPE": "U", "NORAD_CAT_ID": 65586, "ELEMENT_SET_NO": 999, "REV_AT_EPOCH": 27, "BSTAR": 0.00024880559, "MEAN_MOTION_DOT": 0.00013665, "MEAN_MOTION_DDOT": 0}, "tle": {"line1": "1 65586U 25204A   25358.72926446  .00013665  00000+0  24881-3 0  9992", "line2": "2 65586  51.6317  83.1022 0003193 296.2044  63.8616 15.49788781   271"}}, "geometry": {"type": "Point", "coordinates": [-31.51811463737787, -49.7044898393409]}}, {"type": "Feature", "properties": {"norad_id": 65616, "name": "CYGNUS NG-23", "group": "stations", "lat": -49.704490019597735, "lon": -31.518113679853435, "alt_km": 420.2407434059005, "timestamp": "2025-12-25T11:37:43.168630+00:00", "meta": {"OBJECT_NAME": "CYGNUS NG-23", "OBJECT_ID": "2025-208A", "EPOCH": "2025-12-24T17:30:08.449344", "MEAN_MOTION": 15.49788781, "ECCENTRICITY": 0.00031932, "INCLINATION": 51.6317, "RA_OF_ASC_NODE": 83.1022, "ARG_OF_PERICENTER": 296.2044, "MEAN_ANOMALY": 63.8616, "EPHEMERIS_TYPE": 0, "CLASSIFICATION_TYPE": "U", "NORAD_CAT_ID": 65616, "ELEMENT_SET_NO": 999, "REV_AT_EPOCH": 22, "BSTAR": 0.00024880559, "MEAN_MOTION_DOT": 0.00013665, "MEAN_MOTION_DDOT": 0}, "tle": {"line1": "1 65616U 25208A   25358.72926446  .00013665  00000+0  24881-3 0  9990", "line2": "2 65616  51.6317  83.1022 0003193 296.2044  63.8616 15.49788781   220"}}, "geometry": {"type": "Point", "coordinates": [-31.518113679853435, -49.704490019597735]}}, {"type": "Feature", "properties": {"norad_id": 65729, "name": "DRAGONFLY", "group": "stations", "lat": -51.22848849301208, "lon": -10.326088811732223, "alt_km": 343.9707325982845, "timestamp": "2025-12-25T11:37:43.168640+00:00", "meta": {"OBJECT_NAME": "DRAGONFLY", "OBJECT_ID": "1998-067XH", "EPOCH": "2025-12-24T22:17:24.635904", "MEAN_MOTION": 15.7614965, "ECCENTRICITY": 0.0008056, "INCLINATION": 51.6251, "RA_OF_ASC_NODE": 73.1569, "ARG_OF_PERICENTER": 349.7528, "MEAN_ANOMALY": 10.3306, "EPHEMERIS_TYPE": 0, "CLASSIFICATION_TYPE": "U", "NORAD_CAT_ID": 65729, "ELEMENT_SET_NO": 999, "REV_AT_EPOCH": 1508, "BSTAR": 0.0012604, "MEAN_MOTION_DOT": 0.00206057, "MEAN_MOTION_DDOT": 0}, "tle": {"line1": "1 65729U 98067XH  25358.92875736  .00206057  00000+0  12604-2 0  9993", "line2": "2 65729  51.6251  73.1569 0008056 349.7528  10.3306 15.76149650 15080"}}, "geometry": {"type": "Point", "coordinates": [-10.326088811732223, -51.22848849301208]}}, {"type": "Feature", "properties": {"norad_id": 65731, "name": "1998-067XK", "group": "stations", "lat": -21.01214648385571, "lon": 54.735227880075335, "alt_km": 363.7896490290268, "timestamp": "2025-12-25T11:37:43.168650+00:00", "meta": {"OBJECT_NAME": "1998-067XK", "OBJECT_ID": "1998-067XK", "EPOCH": "2025-12-24T11:16:20.028000", "MEAN_MOTION": 15.67978094, "ECCENTRICITY": 0.00049802, "INCLINATION": 51.6288, "RA_OF_ASC_NODE": 77.6233, "ARG_OF_PERICENTER": 319.0572, "MEAN_ANOMALY": 41.005, "EPHEMERIS_TYPE": 0, "CLASSIFICATION_TYPE": "U", "NORAD_CAT_ID": 65731, "ELEMENT_SET_NO": 999, "REV_AT_EPOCH": 1498, "BSTAR": 0.00093626937, "MEAN_MOTION_DOT": 0.00106638, "MEAN_MOTION_DDOT": 0}, "tle": {"line1": "1 65731U 98067XK  25358.46967625  .00106638  00000+0  93627-3 0  9993", "line2": "2 65731  51.6288  77.6233 0004980 319.0572  41.0050 15.67978094 14988"}}, "geometry": {"type": "Point", "coordinates": [54.735227880075335, -21.01214648385571]}}, {"type": "Feature", "properties": {"norad_id": 65732, "name": "RSP-03", "group": "stations", "lat": 51.173391686170284, "lon": 171.4876852717183, "alt_km": 348.65804286073217, "timestamp": "2025-12-25T11:37:43.168661+00:00", "meta": {"OBJECT_NAME": "RSP-03", "OBJECT_ID": "1998-067XL", "EPOCH": "2025-12-25T00:32:25.214784", "MEAN_MOTION": 15.71791128, "ECCENTRICITY": 0.0006004, "INCLINATION": 51.6261, "RA_OF_ASC_NODE": 73.8, "ARG_OF_PERICENTER": 329.4925, "MEAN_ANOMALY": 30.5723, "EPHEMERIS_TYPE": 0, "CLASSIFICATION_TYPE": "U", "NORAD_CAT_ID": 65732, "ELEMENT_SET_NO": 999, "REV_AT_EPOCH": 1509, "BSTAR": 0.0010967, "MEAN_MOTION_DOT": 0.00147294, "MEAN_MOTION_DDOT": 0}, "tle": {"line1": "1 65732U 98067XL  25359.02251406  .00147294  00000+0  10967-2 0  9998", "line2": "2 65732  51.6261  73.8000 0006004 329.4925  30.5723 15.71791128 15095"}}, "geometry": {"type": "Point", "coordinates": [171.4876852717183, 51.173391686170284]}}, {"type": "Feature", "properties": {"norad_id": 65733, "name": "GHS-01", "group": "stations", "lat": -4.838625585374032, "lon": 65.54415658014074, "alt_km": 323.4657602929283, "timestamp": "2025-12-25T11:37:43.168671+00:00", "meta": {"OBJECT_NAME": "GHS-01", "OBJECT_ID": "1998-067XM", "EPOCH": "2025-12-24T11:22:26.359680", "MEAN_MOTION": 15.80150374, "ECCENTRICITY": 0.00095342, "INCLINATION": 51.6288, "RA_OF_ASC_NODE": 74.6328, "ARG_OF_PERICENTER": 353.1442, "MEAN_ANOMALY": 6.9427, "EPHEMERIS_TYPE": 0, "CLASSIFICATION_TYPE": "U", "NORAD_CAT_ID": 65733, "ELEMENT_SET_NO": 999, "REV_AT_EPOCH": 1503, "BSTAR": 0.0014499406, "MEAN_MOTION_DOT": 0.00286733, "MEAN_MOTION_DDOT": 0}, "tle": {"line1": "1 65733U 98067XM  25358.47391620  .00286733  00000+0  14499-2 0  9996", "line2": "2 65733  51.6288  74.6328 0009534 353.1442   6.9427 15.80150374 15030"}}, "geometry": {"type": "Point", "coordinates": [65.54415658014074, -4.838625585374032]}}, {"type": "Feature", "properties": {"norad_id": 65941, "name": "YOTSUBA-KULOVER", "group": "stations", "lat": 24.21007807114724, "lon": -125.03068360096294, "alt_km": 382.8212580880554, "timestamp": "2025-12-25T11:37:43.168683+00:00", "meta": {"OBJECT_NAME": "YOTSUBA-KULOVER", "OBJECT_ID": "1998-067XN", "EPOCH": "2025-12-24T15:01:23.824416", "MEAN_MOTION": 15.61031773, "ECCENTRICITY": 0.0002334, "INCLINATION": 51.6294, "RA_OF_ASC_NODE": 80.1673, "ARG_OF_PERICENTER": 354.5488, "MEAN_ANOMALY": 5.548, "EPHEMERIS_TYPE": 0, "CLASSIFICATION_TYPE": "U", "NORAD_CAT_ID": 65941, "ELEMENT_SET_NO": 999, "REV_AT_EPOCH": 1171, "BSTAR": 0.00084629408, "MEAN_MOTION_DOT": 0.00072714, "MEAN_MOTION_DDOT": 0}, "tle": {"line1": "1 65941U 98067XN  25358.62597019  .00072714  00000+0  84629-3 0  9999", "line2": "2 65941  51.6294  80.1673 0002334 354.5488   5.5480 15.61031773 11714"}}, "geometry": {"type": "Point", "coordinates": [-125.03068360096294, 24.21007807114724]}}, {"type": "Feature", "properties": {"norad_id": 65942, "name": "BOTAN", "group": "stations", "lat": -44.75644774368165, "lon": 22.997897600438264, "alt_km": 374.3438129352253, "timestamp": "2025-12-25T11:37:43.168694+00:00", "meta": {"OBJECT_NAME": "BOTAN", "OBJECT_ID": "1998-067XP", "EPOCH": "2025-12-24T22:06:45.138528", "MEAN_MOTION": 15.65433076, "ECCENTRICITY": 0.00033628, "INCLINATION": 51.6276, "RA_OF_ASC_NODE": 77.6384, "ARG_OF_PERICENTER": 336.9031, "MEAN_ANOMALY": 23.1813, "EPHEMERIS_TYPE": 0, "CLASSIFICATION_TYPE": "U", "NORAD_CAT_ID": 65942, "ELEMENT_SET_NO": 999, "REV_AT_EPOCH": 1177, "BSTAR": 0.0011375872, "MEAN_MOTION_DOT": 0.00117098, "MEAN_MOTION_DDOT": 0}, "tle": {"line1": "1 65942U 98067XP  25358.92135577  .00117098  00000+0  11376-2 0  9993", "line2": "2 65942  51.6276  77.6384 0003362 336.9031  23.1813 15.65433076 11773"}}, "geometry": {"type": "Point", "coordinates": [22.997897600438264, -44.75644774368165]}}, {"type": "Feature", "properties": {"norad_id": 65943, "name": "E-KAGAKU-1", "group": "stations", "lat": 24.596514262583774, "lon": -125.4169539188852, "alt_km": 382.2827704263036, "timestamp": "2025-12-25T11:37:43.168706+00:00", "meta": {"OBJECT_NAME": "E-KAGAKU-1", "OBJECT_ID": "1998-067XQ", "EPOCH": "2025-12-24T11:57:09.904320", "MEAN_MOTION": 15.61022855, "ECCENTRICITY": 0.00014072, "INCLINATION": 51.6316, "RA_OF_ASC_NODE": 80.8196, "ARG_OF_PERICENTER": 317.6976, "MEAN_ANOMALY": 42.3909, "EPHEMERIS_TYPE": 0, "CLASSIFICATION_TYPE": "U", "NORAD_CAT_ID": 65943, "ELEMENT_SET_NO": 999, "REV_AT_EPOCH": 1169, "BSTAR": 0.00086882896, "MEAN_MOTION_DOT": 0.00074652, "MEAN_MOTION_DDOT": 0}, "tle": {"line1": "1 65943U 98067XQ  25358.49803130  .00074652  00000+0  86883-3 0  9997", "line2": "2 65943  51.6316  80.8196 0001407 317.6976  42.3909 15.61022855 11693"}}, "geometry": {"type": "Point", "coordinates": [-125.4169539188852, 24.596514262583774]}}]}